[
    {
        "Altitude(m)": 622205.8340333455,
        "Argument of Periapsis(deg)": 0.0,
        "Eccentricity": 0.0,
        "Inclination(deg)": 60.0,
        "Latitude(deg)": -52.16234307299846,
        "Longitude(deg)": 127.70034074306245,
        "Mean Anomaly(deg)": 245.4545,
        "RAAN(deg)": 0.0,
        "Satellite Name": "Test1 15",
        "Satellite Number": 15,
        "Semi-Major Axis(m)": 6980739.136638005,
        "Time(s)": 0
    },
    {
        "Altitude(m)": 622344.7408927147,
        "Argument of Periapsis(deg)": 0.00010418945913296404,
        "Eccentricity": 0.0,
        "Inclination(deg)": 60.0,
        "Latitude(deg)": -52.5199232542122,
        "Longitude(deg)": 128.48155078172366,
        "Mean Anomaly(deg)": 246.07460614546184,
        "RAAN(deg)": -0.0004200491397426661,
        "Satellite Name": "Test1 15",
        "Satellite Number": 15,
        "Semi-Major Axis(m)": 6980739.136638005,
        "Time(s)": 10
    }
]